1 53805U 22111AJ  22283.58334491 -.00011340  00000-0 -76394-4 0  9996
2 53805  53.2156 120.9662 0001147 120.9543 292.1239 15.73228259  1304